{
  "type": "FeatureCollection",
  "features": [
    {
      "type": "Feature",
      "properties": {
        "norad_id": 35031,
        "name": "COSMOS 2251 DEB",
        "group": "cosmos-2251-debris",
        "lat": 4.70719842333468,
        "lon": 96.4847621926098,
        "alt_km": 778.6307034607962,
        "timestamp": "2025-12-02T15:49:07.590207+00:00",
        "meta_object_name": "COSMOS 2251 DEB",
        "meta_object_id": "1993-036AGU",
        "meta_epoch": "2025-12-01T13:58:05.929248",
        "meta_mean_motion": 14.38271079,
        "meta_eccentricity": 0.00183675,
        "meta_inclination": 74.0384,
        "meta_ra_of_asc_node": 279.8187,
        "meta_arg_of_pericenter": 15.7437,
        "meta_mean_anomaly": 344.4284,
        "meta_ephemeris_type": 0,
        "meta_classification_type": "U",
        "meta_norad_cat_id": 35031,
        "meta_element_set_no": 999,
        "meta_rev_at_epoch": 65123,
        "meta_bstar": 0.00021596114,
        "meta_mean_motion_dot": 6.32e-06,
        "meta_mean_motion_ddot": 0,
        "tle_line1": "1 35031U 93036AGU 25335.58201307  .00000632  00000+0  21596-3 0  9993",
        "tle_line2": "2 35031  74.0384 279.8187 0018367  15.7437 344.4284 14.38271079651232"
      },
      "geometry": {
        "type": "Point",
        "coordinates": [
          96.4847621926098,
          4.70719842333468
        ]
      }
    },
    {
      "type": "Feature",
      "properties": {
        "norad_id": 35032,
        "name": "COSMOS 2251 DEB",
        "group": "cosmos-2251-debris",
        "lat": 20.856785983343066,
        "lon": 33.03030121861179,
        "alt_km": 735.8646021625045,
        "timestamp": "2025-12-02T15:49:07.590237+00:00",
        "meta_object_name": "COSMOS 2251 DEB",
        "meta_object_id": "1993-036AGV",
        "meta_epoch": "2025-12-01T20:30:35.254080",
        "meta_mean_motion": 14.58567497,
        "meta_eccentricity": 0.00689867,
        "meta_inclination": 73.853,
        "meta_ra_of_asc_node": 28.2413,
        "meta_arg_of_pericenter": 241.2373,
        "meta_mean_anomaly": 237.3201,
        "meta_ephemeris_type": 0,
        "meta_classification_type": "U",
        "meta_norad_cat_id": 35032,
        "meta_element_set_no": 999,
        "meta_rev_at_epoch": 87515,
        "meta_bstar": 0.0010447359,
        "meta_mean_motion_dot": 4.993e-05,
        "meta_mean_motion_ddot": 0,
        "tle_line1": "1 35032U 93036AGV 25335.85457470  .00004993  00000+0  10447-2 0  9994",
        "tle_line2": "2 35032  73.8530  28.2413 0068986 241.2373 237.3201 14.58567497875150"
      },
      "geometry": {
        "type": "Point",
        "coordinates": [
          33.03030121861179,
          20.856785983343066
        ]
      }
    },
    {
      "type": "Feature",
      "properties": {
        "norad_id": 35033,
        "name": "COSMOS 2251 DEB",
        "group": "cosmos-2251-debris",
        "lat": -31.736862973044886,
        "lon": -174.6606172415381,
        "alt_km": 719.309511332508,
        "timestamp": "2025-12-02T15:49:07.590251+00:00",
        "meta_object_name": "COSMOS 2251 DEB",
        "meta_object_id": "1993-036AGW",
        "meta_epoch": "2025-12-01T21:46:02.380800",
        "meta_mean_motion": 14.50844438,
        "meta_eccentricity": 0.00143855,
        "meta_inclination": 74.0263,
        "meta_ra_of_asc_node": 196.9584,
        "meta_arg_of_pericenter": 303.7279,
        "meta_mean_anomaly": 56.251,
        "meta_ephemeris_type": 0,
        "meta_classification_type": "U",
        "meta_norad_cat_id": 35033,
        "meta_element_set_no": 999,
        "meta_rev_at_epoch": 65770,
        "meta_bstar": 0.00069994659,
        "meta_mean_motion_dot": 2.736e-05,
        "meta_mean_motion_ddot": 0,
        "tle_line1": "1 35033U 93036AGW 25335.90697200  .00002736  00000+0  69995-3 0  9994",
        "tle_line2": "2 35033  74.0263 196.9584 0014385 303.7279  56.2510 14.50844438657707"
      },
      "geometry": {
        "type": "Point",
        "coordinates": [
          -174.6606172415381,
          -31.736862973044886
        ]
      }
    },
    {
      "type": "Feature",
      "properties": {
        "norad_id": 35037,
        "name": "COSMOS 2251 DEB",
        "group": "cosmos-2251-debris",
        "lat": 73.33387893287636,
        "lon": -128.05158960773022,
        "alt_km": 274.9359292726949,
        "timestamp": "2025-12-02T15:49:07.590262+00:00",
        "meta_object_name": "COSMOS 2251 DEB",
        "meta_object_id": "1993-036AHA",
        "meta_epoch": "2025-11-07T11:23:37.197312",
        "meta_mean_motion": 15.53719687,
        "meta_eccentricity": 0.0010282,
        "meta_inclination": 73.9601,
        "meta_ra_of_asc_node": 214.7185,
        "meta_arg_of_pericenter": 129.4999,
        "meta_mean_anomaly": 230.7127,
        "meta_ephemeris_type": 0,
        "meta_classification_type": "U",
        "meta_norad_cat_id": 35037,
        "meta_element_set_no": 999,
        "meta_rev_at_epoch": 66656,
        "meta_bstar": 0.0068953187,
        "meta_mean_motion_dot": 0.00469331,
        "meta_mean_motion_ddot": 0,
        "tle_line1": "1 35037U 93036AHA 25311.47473608  .00469331  00000+0  68953-2 0  9998",
        "tle_line2": "2 35037  73.9601 214.7185 0010282 129.4999 230.7127 15.53719687666563"
      },
      "geometry": {
        "type": "Point",
        "coordinates": [
          -128.05158960773022,
          73.33387893287636
        ]
      }
    },
    {
      "type": "Feature",
      "properties": {
        "norad_id": 35038,
        "name": "COSMOS 2251 DEB",
        "group": "cosmos-2251-debris",
        "lat": 29.328076657139214,
        "lon": -128.51897135995742,
        "alt_km": 822.1707892142731,
        "timestamp": "2025-12-02T15:49:07.590272+00:00",
        "meta_object_name": "COSMOS 2251 DEB",
        "meta_object_id": "1993-036AHB",
        "meta_epoch": "2025-12-01T12:14:35.519712",
        "meta_mean_motion": 14.25049374,
        "meta_eccentricity": 0.01140704,
        "meta_inclination": 74.1071,
        "meta_ra_of_asc_node": 62.7544,
        "meta_arg_of_pericenter": 49.9914,
        "meta_mean_anomaly": 325.8758,
        "meta_ephemeris_type": 0,
        "meta_classification_type": "U",
        "meta_norad_cat_id": 35038,
        "meta_element_set_no": 999,
        "meta_rev_at_epoch": 85409,
        "meta_bstar": 0.0012889001,
        "meta_mean_motion_dot": 3.209e-05,
        "meta_mean_motion_ddot": 0,
        "tle_line1": "1 35038U 93036AHB 25335.51013333  .00003209  00000+0  12889-2 0  9990",
        "tle_line2": "2 35038  74.1071  62.7544 0114070  49.9914 325.8758 14.25049374854091"
      },
      "geometry": {
        "type": "Point",
        "coordinates": [
          -128.51897135995742,
          29.328076657139214
        ]
      }
    },
    {
      "type": "Feature",
      "properties": {
        "norad_id": 35043,
        "name": "COSMOS 2251 DEB",
        "group": "cosmos-2251-debris",
        "lat": -69.30878930574137,
        "lon": 15.788184692456959,
        "alt_km": 580.3129598035594,
        "timestamp": "2025-12-02T15:49:07.590283+00:00",
        "meta_object_name": "COSMOS 2251 DEB",
        "meta_object_id": "1993-036AHG",
        "meta_epoch": "2025-12-01T12:30:27.515520",
        "meta_mean_motion": 14.75939938,
        "meta_eccentricity": 0.00983873,
        "meta_inclination": 73.9533,
        "meta_ra_of_asc_node": 67.6713,
        "meta_arg_of_pericenter": 278.6033,
        "meta_mean_anomaly": 80.4003,
        "meta_ephemeris_type": 0,
        "meta_classification_type": "U",
        "meta_norad_cat_id": 35043,
        "meta_element_set_no": 999,
        "meta_rev_at_epoch": 67253,
        "meta_bstar": 0.0052130245,
        "meta_mean_motion_dot": 0.00038979,
        "meta_mean_motion_ddot": 0,
        "tle_line1": "1 35043U 93036AHG 25335.52115180  .00038979  00000+0  52130-2 0  9995",
        "tle_line2": "2 35043  73.9533  67.6713 0098387 278.6033  80.4003 14.75939938672537"
      },
      "geometry": {
        "type": "Point",
        "coordinates": [
          15.788184692456959,
          -69.30878930574137
        ]
      }
    },
    {
      "type": "Feature",
      "properties": {
        "norad_id": 35045,
        "name": "COSMOS 2251 DEB",
        "group": "cosmos-2251-debris",
        "lat": -8.369585628498598,
        "lon": 68.04540139115444,
        "alt_km": 789.7390543100837,
        "timestamp": "2025-12-02T15:49:07.590293+00:00",
        "meta_object_name": "COSMOS 2251 DEB",
        "meta_object_id": "1993-036AHJ",
        "meta_epoch": "2025-11-26T14:07:36.378336",
        "meta_mean_motion": 14.00336124,
        "meta_eccentricity": 0.01828228,
        "meta_inclination": 73.7186,
        "meta_ra_of_asc_node": 81.2256,
        "meta_arg_of_pericenter": 325.5651,
        "meta_mean_anomaly": 33.374,
        "meta_ephemeris_type": 0,
        "meta_classification_type": "U",
        "meta_norad_cat_id": 35045,
        "meta_element_set_no": 999,
        "meta_rev_at_epoch": 84417,
        "meta_bstar": 0.00067477445,
        "meta_mean_motion_dot": 1.127e-05,
        "meta_mean_motion_ddot": 0,
        "tle_line1": "1 35045U 93036AHJ 25330.58861549  .00001127  00000+0  67477-3 0  9991",
        "tle_line2": "2 35045  73.7186  81.2256 0182822 325.5651  33.3740 14.00336124844173"
      },
      "geometry": {
        "type": "Point",
        "coordinates": [
          68.04540139115444,
          -8.369585628498598
        ]
      }
    }
  ]
}